SKYSAT-A                
1 39418U 13066C   26190.54461546  .00002223  00000+0  12862-3 0  9994
2 39418  97.3805 239.2292 0020026 233.9327 126.0050 15.13096648691864
SKYSAT-B                
1 40072U 14037D   26190.31517603  .00000919  00000+0  10666-3 0  9992
2 40072  98.3850 150.5437 0005102 192.3178 167.7912 14.88083155649254
SKYSAT-C1               
1 41601U 16040C   26190.03366107  .00006236  00000+0  17621-3 0  9993
2 41601  96.9560 220.5725 0000940   8.0156 352.1104 15.36676665561228
SKYSAT-C4               
1 41771U 16058B   26190.29725210  .00013809  00000+0  25396-3 0  9994
2 41771  96.9170 211.1523 0003288 126.7848 233.3706 15.49300988548891
SKYSAT-C5               
1 41772U 16058C   26190.66555985  .00010940  00000+0  33520-3 0  9997
2 41772  97.0474 230.2992 0001828  80.3892 279.7558 15.33951399547197
SKYSAT-C2               
1 41773U 16058D   26189.99420614  .00008655  00000+0  20102-3 0  9994
2 41773  97.0167 211.2736 0002219  17.2519 342.8804 15.42580195548416
SKYSAT-C3               
1 41774U 16058E   26189.98654813  .00017017  00000+0  26927-3 0  9997
2 41774  96.9004 220.0058 0002105 133.8993 226.2436 15.53501070549497
SKYSAT-C11              
1 42987U 17068A   26190.65835404  .00021499  00000+0  27645-3 0  9996
2 42987  97.4368 340.4901 0000812 166.0165 194.1114 15.59105762486747
SKYSAT-C10              
1 42988U 17068B   26190.65457372  .00007814  00000+0  23222-3 0  9993
2 42988  97.4523 327.7297 0001361 109.0541 251.0850 15.35042344485808
SKYSAT-C9               
1 42989U 17068C   26190.62943440  .00009130  00000+0  21510-3 0  9998
2 42989  97.4443 328.8560 0009065  62.2816 297.9349 15.42121068486216
SKYSAT-C8               
1 42990U 17068D   26190.65650339  .00007514  00000+0  20712-3 0  9992
2 42990  97.4543 327.6180 0001224  99.9689 260.1694 15.37418485485768
SKYSAT-C7               
1 42991U 17068E   26190.65081502  .00007316  00000+0  20193-3 0  9996
2 42991  97.4551 328.6033 0006199  39.6493 320.5204 15.37370143485829
SKYSAT-C6               
1 42992U 17068F   26190.64887444  .00006518  00000+0  19987-3 0  9997
2 42992  97.4588 328.4799 0005163 103.1836 256.9983 15.34106572485764
SKYSAT-C12              
1 43797U 18099AR  26190.83003022  .00013448  00000+0  24421-3 0  9998
2 43797  96.9264 213.1650 0005706  81.7664 278.4235 15.49659288425364
